[{"OBJECT_NAME":"HULIANWANG DIGUI-37","OBJECT_ID":"2025-159C","EPOCH":"2026-03-09T23:16:22.543968","MEAN_MOTION":13.24419852,"ECCENTRICITY":0.00013714,"INCLINATION":86.4936,"RA_OF_ASC_NODE":315.8693,"ARG_OF_PERICENTER":71.5408,"MEAN_ANOMALY":288.5875,"EPHEMERIS_TYPE":0,"CLASSIFICATION_TYPE":"U","NORAD_CAT_ID":64958,"ELEMENT_SET_NO":999,"REV_AT_EPOCH":2999,"BSTAR":5.5127962e-5,"MEAN_MOTION_DOT":3.8e-7,"MEAN_MOTION_DDOT":0},{"OBJECT_NAME":"DELTA 1 DEB","OBJECT_ID":"1975-052BG","EPOCH":"2026-03-09T17:32:19.206240","MEAN_MOTION":13.34964985,"ECCENTRICITY":0.00607206,"INCLINATION":99.648,"RA_OF_ASC_NODE":349.0722,"ARG_OF_PERICENTER":116.3023,"MEAN_ANOMALY":299.1555,"EPHEMERIS_TYPE":0,"CLASSIFICATION_TYPE":"U","NORAD_CAT_ID":21338,"ELEMENT_SET_NO":999,"REV_AT_EPOCH":69532,"BSTAR":0.00013195571,"MEAN_MOTION_DOT":2.6e-7,"MEAN_MOTION_DDOT":0}]
